OBJECT_NAME,OBJECT_ID,EPOCH,MEAN_MOTION,ECCENTRICITY,INCLINATION,RA_OF_ASC_NODE,ARG_OF_PERICENTER,MEAN_ANOMALY,EPHEMERIS_TYPE,CLASSIFICATION_TYPE,NORAD_CAT_ID,ELEMENT_SET_NO,REV_AT_EPOCH,BSTAR,MEAN_MOTION_DOT,MEAN_MOTION_DDOT
ONEWEB-0012,2019-010A,2026-06-19T16:26:30.745248,13.16595001,.00018862,87.9095,228.2894,85.5935,274.5411,0,U,44057,999,35189,.15350632E-3,.72E-6,0
ONEWEB-0010,2019-010B,2026-06-19T17:02:59.375616,13.16594797,.00018815,87.9098,228.2800,106.6219,253.5119,0,U,44058,999,35194,-.23468582E-4,.4E-7,0
ONEWEB-0008,2019-010C,2026-06-19T15:50:01.380480,13.16596103,.00023303,87.9092,228.2857,97.0412,263.0984,0,U,44059,999,35205,.18606665E-4,.2E-6,0
ONEWEB-0007,2019-010D,2026-06-19T18:32:56.937408,13.15548727,.00016399,87.9001,258.7060,100.2607,259.8708,0,U,44060,999,35171,.4764178E-3,.192E-5,0
ONEWEB-0006,2019-010E,2026-06-19T18:38:38.053248,13.15549027,.0001861,87.9013,258.6697,103.8563,256.2775,0,U,44061,999,35176,.43722017E-3,.177E-5,0
ONEWEB-0011,2019-010F,2026-06-19T17:53:00.209184,13.15547623,.00021349,87.9014,258.6857,104.9302,255.2065,0,U,44062,999,35175,-.15435542E-3,-.45E-6,0
ONEWEB-0013,2020-008A,2026-06-19T16:35:53.739744,13.09455188,.00021472,87.8514,52.3202,53.4407,306.6917,0,U,45131,999,30639,-.14868999E-2,-.499E-5,0
ONEWEB-0017,2020-008B,2026-06-19T16:08:01.899744,13.10390406,.0001588,87.8833,35.7740,84.5759,275.5549,0,U,45132,999,30827,-.12621575E-1,-.4392E-4,0
ONEWEB-0020,2020-008C,2026-06-19T15:24:37.549728,13.10480336,.00017662,87.8830,35.7781,83.6066,276.5262,0,U,45133,999,30866,.18640997E-2,.664E-5,0
ONEWEB-0021,2020-008D,2026-06-19T15:46:19.896672,13.10426382,.00016959,87.8826,35.7914,81.3995,278.7325,0,U,45134,999,30897,.87834616E-4,.43E-6,0
ONEWEB-0023,2020-008F,2026-06-19T16:01:59.497536,13.10388633,.00019016,87.8838,35.7713,79.2979,280.8363,0,U,45136,999,30840,-.5801163E-3,-.19E-5,0
ONEWEB-0024,2020-008G,2026-06-19T15:22:21.392832,13.10495531,.00017593,87.8838,35.7692,84.2234,275.9094,0,U,45137,999,30856,-.91066273E-3,-.306E-5,0
ONEWEB-0025,2020-008H,2026-06-19T17:11:54.632256,13.10492935,.00022431,87.8839,35.7439,90.4043,269.7342,0,U,45138,999,30890,-.16967119E-2,-.581E-5,0
ONEWEB-0026,2020-008J,2026-06-19T14:24:04.212000,13.11414230,.00018122,87.8882,20.5879,91.0200,269.1136,0,U,45139,999,31142,-.10808492E-2,-.37E-5,0
ONEWEB-0028,2020-008K,2026-06-19T15:38:32.922816,13.11414654,.00018584,87.8881,20.5855,70.4726,289.6602,0,U,45140,999,30894,.13402783E-2,.488E-5,0
ONEWEB-0032,2020-008L,2026-06-19T16:10:37.856064,13.10366222,.00020252,87.8835,35.7751,68.7420,291.3923,0,U,45141,999,30862,-.22531216E-2,-.774E-5,0
ONEWEB-0033,2020-008M,2026-06-19T15:34:13.349568,13.10461561,.00016702,87.8827,35.7870,100.2566,259.8750,0,U,45142,999,30853,-.22529679E-2,-.775E-5,0
ONEWEB-0035,2020-008N,2026-06-19T21:33:16.684992,13.10383117,.0001808,87.8830,35.7306,86.1983,273.9351,0,U,45143,999,30829,.15399087E-2,.55E-5,0
ONEWEB-0036,2020-008P,2026-06-19T15:28:40.006272,13.09979332,.00019196,87.8843,35.7934,78.2180,281.9162,0,U,45144,999,30868,-.17390657E-2,-.591E-5,0
ONEWEB-0038,2020-008Q,2026-06-19T14:38:54.922560,13.11416378,.00001901,87.8899,20.5944,41.6108,318.5034,0,U,45145,999,31064,-.17464839E-2,-.606E-5,0
ONEWEB-0039,2020-008R,2026-06-19T15:39:06.489216,13.10450725,.00018484,87.8835,35.7758,65.0267,295.1052,0,U,45146,999,30848,.37916785E-2,.1338E-4,0
ONEWEB-0040,2020-008S,2026-06-19T15:29:26.222496,13.10476128,.00022167,87.8827,35.7914,95.7836,264.3544,0,U,45147,999,30818,-.13902777E-2,-.473E-5,0
ONEWEB-0043,2020-008U,2026-06-19T15:31:48.926784,13.10466868,.00019128,87.8833,35.7763,65.2999,294.8328,0,U,45149,999,30850,-.18075966E-2,-.619E-5,0
ONEWEB-0044,2020-008V,2026-06-19T16:12:50.577696,13.10360344,.00018563,87.8845,35.7716,77.7794,282.3541,0,U,45150,999,30880,-.25193562E-2,-.867E-5,0
ONEWEB-0045,2020-008W,2026-06-19T14:31:23.775456,13.11415208,.00017633,87.8895,20.5783,82.6661,277.4668,0,U,45151,999,31072,-.12127971E-2,-.417E-5,0
ONEWEB-0047,2020-008X,2026-06-19T21:32:51.523584,13.10385435,.00016128,87.8840,35.7268,87.1115,273.0196,0,U,45152,999,30855,-.67549346E-3,-.223E-5,0
ONEWEB-0048,2020-008Y,2026-06-19T15:55:59.549952,13.10398643,.00017216,87.8828,35.7947,83.8728,276.2595,0,U,45153,999,30813,-.23368624E-3,-.69E-6,0
ONEWEB-0049,2020-008Z,2026-06-19T16:00:35.425152,13.10391682,.00022073,87.8830,35.7831,80.5498,279.5879,0,U,45154,999,30835,-.84201428E-3,-.281E-5,0
ONEWEB-0051,2020-008AA,2026-06-19T14:28:57.703296,13.11416951,.0001837,87.8886,20.5861,85.8742,274.2596,0,U,45155,999,31140,-.10574419E-2,-.362E-5,0
ONEWEB-0052,2020-008AB,2026-06-19T16:29:57.510816,13.10303757,.00022362,87.8835,35.7647,80.7275,279.4105,0,U,45156,999,30826,.17919409E-2,.638E-5,0
